Satellite: RS-38
Catalog number: 35869
Epoch time:      10182.60076597
Element set:     440
Inclination:      098.7565 deg
RA of node:       236.3305 deg
Eccentricity:    0.0004295
Arg of perigee:   336.0146 deg
Mean anomaly:     024.0831 deg
Mean motion:   14.21984272 rev/day
Decay rate:       1.77e-06 rev/day^2
Epoch rev:            4077
Checksum:              308

/EX



From ray.hoad at mypbmail.com  Thu Jul  1 19:44:41 2010
From: ray.hoad at mypbmail.com (Ray Hoad)
Date: Thu, 1 Jul 2010 21:44:41 -0500
Subject: [keps]  orb10182.2l.amsat
Message-ID: <14143D323A434C06AB8D4FB3471587AE@SPINMOD1>

SB KEPS @ AMSAT  $ORB10182.N
2Line Orbital Elements 10182.AMSAT

HR AMSAT ORBITAL ELEMENTS FOR AMATEUR SATELLITES IN NASA FORMAT
FROM WA5QGD FORT WORTH,TX July 1, 2010
Send Subscribe/unsubscribe to KEPS at http://www.amsat.org/mailman/listinfo/keps
BID: ORB10182.N

DECODE 2-LINE ELSETS WITH THE FOLLOWING KEY:
1 AAAAAU 00  0  0 BBBBB.BBBBBBBB  .CCCCCCCC  00000-0  00000-0 0  DDDZ
2 AAAAA EEE.EEEE FFF.FFFF GGGGGGG HHH.HHHH III.IIII JJ.JJJJJJJJKKKKKZ
KEY: A-CATALOGNUM B-EPOCHTIME C-DECAY D-ELSETNUM E-INCLINATION F-RAAN
G-ECCENTRICITY H-ARGPERIGEE I-MNANOM J-MNMOTION K-ORBITNUM Z-CHECKSUM

TO ALL RADIO AMATEURS BT

AO-07
1 07530U 74089B   10182.56777395 -.00000027  00000-0  10000-3 0  8155
2 07530 101.3996 197.8754 0011615 246.5386 113.4469 12.53578781630256
FO-29
1 24278U 96046B   10182.74768864 -.00000128  00000-0 -97493-4 0  3432
2 24278 098.5141 009.8650 0351478 086.0832 278.0409 13.52950437685071
SO-33
1 25509U 98061B   10181.81930802  .00000217  00000-0  33145-4 0 07456
2 25509 031.4313 071.4166 0353759 049.0943 313.9753 14.28312746610000
RS-22
1 27939U 03042A   10182.61910159  .00000061  00000-0  20482-4 0  3219
2 27939 097.8906 047.4919 0014093 018.9316 341.2411 14.63430155361064
VO-52
1 28650U 05017B   10181.23382877  .00000012  00000-0  80350-5 0 05412
2 28650 097.6918 234.1597 0026090 232.4227 127.4664 14.81764240278625
SO-67
1 35870U 09049F   10182.92501391  .00000704  00000-0  34856-4 0  8694
2 35870 097.3306 231.6709 0004563 061.1849 064.0253 15.20939422 43697
HO-68
1 36122U 09072B   10182.68968790 -.00000045  00000-0  00000 0 0  4452
2 36122 100.4685 242.9728 0007183 305.5862 054.4583 13.16280972 26121
UO-11
1 14781U 84021B   10181.34291029  .00000015  00000-0  91135-5 0 02787
2 14781 098.0533 233.1246 0008943 188.0257 172.0798 14.79812360413752
AO-16
1 20439U 90005D   10181.88528790 -.00000016  00000-0  96515-5 0 09359
2 20439 098.3322 139.2526 0011778 122.8522 237.3801 14.31865317067344
LO-19
1 20442U 90005G   10182.43975604 -.00000065  00000-0 -88899-5 0  8445
2 20442 098.2938 145.5294 0012799 116.8640 243.3871 14.32096222 67593
AO-27
1 22825U 93061C   10182.43401544  .00000100  00000-0  56154-4 0  5672
2 22825 098.4850 130.0161 0007817 222.5260 137.5313 14.29301401874084
IO-26
1 22826U 93061D   10182.56691951 -.00000014  00000-0  11162-4 0  3033
2 22826 098.4800 130.7416 0008319 217.2165 142.8435 14.29557022874214
GO-32
1 25397U 98043D   10181.52924685 -.00000015  00000-0  11387-4 0 02233
2 25397 098.3116 188.2445 0000850 170.6147 189.5051 14.23180370621947
NO-44
1 26931U 01043C   10181.42660123 -.00000201  00000-0 -46020-4 0 04967
2 26931 067.0496 169.8630 0005423 262.7404 097.3093 14.29600424456645
SO-50
1 27607U 02058C   10182.48377304  .00000008  00000-0  22849-4 0  2120
2 27607 064.5590 313.0925 0035400 070.0444 290.4437 14.71551325404480
CO-55
1 27844U 03031E   10181.54665455  .00000050  00000-0  43305-4 0 08794
2 27844 098.7087 190.3279 0010391 127.4410 232.7729 14.20715329362984
CO-57
1 27848U 03031J   10182.56431638  .00000061  00000-0  48844-4 0  8318
2 27848 098.7122 190.4271 0010298 129.8714 230.3372 14.20507630363084
AO-51
1 28375U 04025K   10181.48367536  .00000009  00000-0  15072-4 0 07131
2 28375 098.0625 174.2221 0085203 056.8770 304.0562 14.40689204315420
GENESAT1
1 29655U 06058C   10182.71638784  .00203407  22672-4  41479-3 0  1407
2 29655 040.0155 293.5207 0008725 048.6689 311.4995 15.98538407202315
CP3
1 31129U 07012N   10181.51316043  .00000216  00000-0  60052-4 0 06151
2 31129 097.9356 220.3710 0103820 190.9533 168.9594 14.52272147169795
CO-65
1 32785U 08021C   10182.41398721  .00000475  00000-0  66994-4 0  7210
2 32785 097.8953 247.1446 0013880 236.8435 123.1467 14.81673774117592
KKS-1
1 33493U 09002B   10182.57752785  .00000431  00000-0  62433-4 0  6213
2 33493 098.0875 302.1933 0021396 094.4055 265.9605 14.81022470 77613
SOHLA-1
1 33496U 09002E   10181.77915786  .00000062  00000-0  18744-4 0 01423
2 33496 098.0609 290.6791 0006958 151.2033 208.9566 14.69500541076875
NOAA-10
1 16969U 86073A   10181.61149397  .00000051  00000-0  38835-4 0 01164
2 16969 098.6543 210.4526 0012264 168.4756 191.6720 14.27420333237490
NOAA-11
1 19531U 88089A   10181.32251370 -.00000180  00000-0 -70507-4 0 01284
2 19531 098.7704 270.1243 0012241 108.2946 251.9582 14.14928071122997
NOAA-12
1 21263U 91032A   10181.82635799  .00000065  00000-0  46392-4 0 06164
2 21263 098.7642 194.9828 0013175 124.0041 236.2384 14.25641604994342
MET-3/5
1 21655U 91056A   10181.70265413  .00000051  00000-0  10000-3 0  8505
2 21655 082.5591 299.0856 0012543 319.7892 040.2287 13.17020882907454
MET-2/21
1 22782U 93055A   10182.53730931  .00000004  00000-0 -93224-5 0  8175
2 22782 082.5468 241.0568 0022552 006.9608 353.1865 13.83645476850064
OKEAN-4
1 23317U 94066A   10181.68277031  .00000243  00000-0  26917-4 0 02728
2 23317 082.5410 341.2596 0021528 193.2978 166.7695 14.82830692848457
NOAA-14
1 23455U 94089A   10181.80090241 -.00000006  00000-0  20429-4 0 01084
2 23455 098.8787 262.4503 0009010 192.2069 167.8874 14.13788742799426
NOAA-15
1 25338U 98030A   10181.56661767  .00000177  00000-0  94551-4 0 04297
2 25338 098.6188 168.2506 0011353 040.6947 319.5084 14.24837581630657
RESURS
1 25394U 98043A   10181.62602865  .00000034  00000-0  32588-4 0 05435
2 25394 098.3043 198.9741 0001382 139.9351 220.1926 14.24204808622269
FENGYUN1
1 25730U 99025A   10181.45020423 -.00000009  00000-0  19914-4 0 00789
2 25730 098.7856 146.0590 0020706 231.5343 128.4021 14.08187787573557
OKEAN-0
1 25860U 99039A   10182.47147553  .00000021  00000-0  10647-4 0   344
2 25860 097.8324 154.6837 0001786 061.6194 298.5188 14.73646567589001
NOAA-16
1 26536U 00055A   10181.54280210  .00000093  00000-0  75815-4 0 09065
2 26536 099.1693 199.3259 0009728 302.6359 057.3913 14.12565154503711
NOAA-17
1 27453U 02032A   10181.55570065 -.00000024  00000-0  74678-5 0 09053
2 27453 098.4300 231.4617 0012807 098.0956 262.1699 14.24169155416606
NOAA-18
1 28654U 05018A   10181.55722412  .00000217  00000-0  14476-3 0 03896
2 28654 098.9502 127.7832 0014753 019.7202 340.4548 14.11367551263329
NOAA-19
1 33591U 09005A   10181.54811956  .00000132  00000-0  97509-4 0 05867
2 33591 098.7885 123.3850 0013091 250.8245 109.1506 14.11063142071799
HUBBLE
1 20580U 90037B   10182.34335461  .00000234  00000-0  17837-4 0  5945
2 20580 028.4682 147.4498 0002892 358.8779 001.2267 15.00992347906881
ISS
1 25544U 98067A   10183.01103237  .00011736  00000-0  91547-4 0  4274
2 25544 051.6465 154.7287 0010027 032.7085 083.3744 15.72156097665805
CO-58
1 28895U 05043F   10181.20938373  .00000133  00000-0  37223-4 0 06210
2 28895 098.0130 065.2551 0016843 242.7994 117.1471 14.59905393248888
FALCON
1 30776U 07006E   10181.82611546  .00000532  00000-0  41086-4 0  8600
2 30776 035.4348 321.4855 0001945 321.3484 038.7092 15.03701208182113
MAST
1 31126U 07012K   10181.64493234  .00000053  00000-0  22358-4 0  9025
2 31126 097.9360 222.9615 0094258 183.5363 176.5137 14.53597999170013
CAPE1
1 31130U 07012P   10181.50287584  .00000239  00000-0  65758-4 0  9223
2 31130 097.9355 220.2105 0102189 191.8484 168.0368 14.52193616169596
COMPASS
1 32787U 08021E   10181.20050385  .00000183  00000-0  29765-4 0 07131
2 32787 097.8934 245.7790 0014709 241.7957 118.1775 14.81896430117428
AAUSAT2
1 32788U 08021F   10181.13478436  .00000254  00000-0  38702-4 0 07056
2 32788 097.8939 245.8463 0014210 243.1422 116.8401 14.82040580117421
DO-64
1 32789U 08021G   10182.69512034  .00000983  00000-0  12978-3 0  7226
2 32789 097.8998 247.8741 0014558 235.5215 124.4623 14.82195463117655
CO-66
1 32791U 08021J   10182.71005432  .00000343  00000-0  43551-4 0  7043
2 32791 097.8953 247.2808 0014987 235.5413 124.4883 14.81680787668121
RS-30
1 32953U 08025A   10182.53693838  .00000010  00000-0  00000 0 0  8319
2 32953 082.5002 020.7547 0019931 071.6172 288.7085 12.43005971 95524
TACSAT-3
1 35001U 09028A   10181.97172979  .00004554  00000-0  10945-3 0 03242
2 35001 040.4528 131.2953 0019626 106.9822 253.3146 15.41905388062769
PHARMSAT
1 35002U 09028B   10181.92084552  .00003736  00000-0  89139-4 0 03071
2 35002 040.4669 129.5546 0022648 111.8414 248.4815 15.42420571062770
HAWKSAT1
1 35003U 09028C   10181.93110625  .00008953  00000-0  18479-3 0 03315
2 35003 040.4546 123.8890 0020149 127.0313 233.2358 15.45621313062847
CP6
1 35004U 09028D   10181.92051447  .00010032  00000-0  20051-3 0 03254
2 35004 040.4595 122.9279 0019258 132.0572 228.1896 15.46485833062841
AEROCUB3
1 35005U 09028E   10182.82763045  .00032718  00000-0  52461-3 0  3636
2 35005 040.4690 114.2611 0017013 159.2173 200.9347 15.52184970 63022
DRAGNSAT
1 35690U 09038B   10076.22711312  .05715194  12509-4  31481-3 0  3162
2 35690 051.6170 315.4586 0004999 310.9891 057.3269 16.42150010 36561
POLLUX
1 35693U 09038E   10087.99866888  .23496735  12787-4  17715-3 0  3529
2 35693 051.6099 254.5746 0006270 294.4866 097.5899 16.52338462 38395
CASTOR
1 35694U 09038F   10182.78538706  .00120917  18020-4  17177-3 0  5204
2 35694 051.6322 121.7936 0001362 044.5801 315.5321 16.05351770 53408
METEOR-M
1 35865U 09049A   10182.56045825  .00000176  00000-0  10000-3 0  4315
2 35865 098.7577 236.2566 0002403 345.6614 014.4493 14.21830849 40762
RS-38
1 35869U 09049E   10182.60076597  .00000177  00000-0  10000-3 0  4405
2 35869 098.7565 236.3305 0004295 336.0146 024.0831 14.21984272 40774
/EX



From ray.hoad at mypbmail.com  Thu Jul  8 19:47:26 2010
From: ray.hoad at mypbmail.com (Ray Hoad)
Date: Thu, 8 Jul 2010 21:47:26 -0500
Subject: [keps]  orb10189.amsat
Message-ID: <42ADEBBC28B54A7693C29EB32B17784D@SPINMOD1>

SB KEPS @ AMSAT  $ORB10189.O
Orbital Elements  10189.OSCAR

HR AMSAT ORBITAL ELEMENTS FOR OSCAR SATELLITES
FROM WA5QGD FORT WORTH,TX July 8, 2010
Send Subscribe/unsubscribe to KEPS at http://www.amsat.org/mailman/listinfo/keps
BID: ORB10189.O
TO ALL RADIO AMATEURS BT

